start=new Date('2022-10-13T00:00:00.000Z').valueOf();
sats=[{"PERIOD":"95.438","MEAN_MOTION_DOT":"0.00001434","CENTER_NAME":"EARTH","FILE":"3606891","COUNTRY_CODE":"US","APOAPSIS":"540.906","DECAY_DATE":null,"TLE_LINE2":"2 52098  53.2161 273.7033 0001667  51.6144 308.4998 15.08837426 32853","BSTAR":"0.00010821000000","ELEMENT_SET_NO":"999","CLASSIFICATION_TYPE":"U","INCLINATION":"53.2161","REV_AT_EPOCH":"3285","ECCENTRICITY":"0.00016670","TIME_SYSTEM":"UTC","SITE":"AFETR","ARG_OF_PERICENTER":"51.6144","OBJECT_NAME":"STARLINK-3665","NORAD_CAT_ID":"52098","EPHEMERIS_TYPE":"0","RA_OF_ASC_NODE":"273.7033","LAUNCH_DATE":"2022-03-19","SEMIMAJOR_AXIS":"6917.888","PERIAPSIS":"538.600","MEAN_MOTION":"15.08837426","REF_FRAME":"TEME","EPOCH":"2022-10-12T16:20:43.061280","OBJECT_TYPE":"PAYLOAD","GP_ID":"214922360","MEAN_MOTION_DDOT":"0.0000000000000","OBJECT_ID":"2022-029L","TLE_LINE1":"1 52098U 22029L   22285.68105395  .00001434  00000-0  10821-3 0  9992","RCS_SIZE":"LARGE","MEAN_ANOMALY":"308.4998","MEAN_ELEMENT_THEORY":"SGP4"},{"CLASSIFICATION_TYPE":"U","ELEMENT_SET_NO":"999","TLE_LINE2":"2 52100  53.2182 272.8371 0001461  58.0796 302.0338 15.08833212 32881","BSTAR":"0.00007221200000","SITE":"AFETR","TIME_SYSTEM":"UTC","ECCENTRICITY":"0.00014610","REV_AT_EPOCH":"3288","INCLINATION":"53.2182","CENTER_NAME":"EARTH","MEAN_MOTION_DOT":"0.00000861","PERIOD":"95.438","DECAY_DATE":null,"APOAPSIS":"540.777","COUNTRY_CODE":"US","FILE":"3606891","GP_ID":"214923110","OBJECT_TYPE":"PAYLOAD","EPOCH":"2022-10-12T20:56:16.795968","REF_FRAME":"TEME","MEAN_ELEMENT_THEORY":"SGP4","MEAN_ANOMALY":"302.0338","RCS_SIZE":"LARGE","TLE_LINE1":"1 52100U 22029N   22285.87241662  .00000861  00000-0  72212-4 0  9991","OBJECT_ID":"2022-029N","MEAN_MOTION_DDOT":"0.0000000000000","RA_OF_ASC_NODE":"272.8371","EPHEMERIS_TYPE":"0","NORAD_CAT_ID":"52100","OBJECT_NAME":"STARLINK-3702","ARG_OF_PERICENTER":"58.0796","MEAN_MOTION":"15.08833212","PERIAPSIS":"538.755","SEMIMAJOR_AXIS":"6917.901","LAUNCH_DATE":"2022-03-19"},{"MEAN_MOTION_DDOT":"0.0000000000000","RCS_SIZE":"LARGE","OBJECT_ID":"2022-029P","TLE_LINE1":"1 52101U 22029P   22285.40137813 -.00001044  00000-0 -47503-4 0  9994","MEAN_ANOMALY":"309.1952","MEAN_ELEMENT_THEORY":"SGP4","REF_FRAME":"TEME","EPOCH":"2022-10-12T09:37:59.070432","GP_ID":"214883215","OBJECT_TYPE":"PAYLOAD","LAUNCH_DATE":"2022-03-19","PERIAPSIS":"538.454","SEMIMAJOR_AXIS":"6917.908","MEAN_MOTION":"15.08830820","OBJECT_NAME":"STARLINK-3703","ARG_OF_PERICENTER":"50.9209","EPHEMERIS_TYPE":"0","NORAD_CAT_ID":"52101","RA_OF_ASC_NODE":"274.9546","INCLINATION":"53.2179","REV_AT_EPOCH":"3280","TIME_SYSTEM":"UTC","ECCENTRICITY":"0.00019080","SITE":"AFETR","TLE_LINE2":"2 52101  53.2179 274.9546 0001908  50.9209 309.1952 15.08830820 32805","BSTAR":"-0.00004750300000","ELEMENT_SET_NO":"999","CLASSIFICATION_TYPE":"U","FILE":"3606148","COUNTRY_CODE":"US","APOAPSIS":"541.093","DECAY_DATE":null,"PERIOD":"95.438","MEAN_MOTION_DOT":"-0.00001044","CENTER_NAME":"EARTH"},{"FILE":"3606148","COUNTRY_CODE":"US","APOAPSIS":"541.019","DECAY_DATE":null,"PERIOD":"95.438","MEAN_MOTION_DOT":"-0.00000657","CENTER_NAME":"EARTH","INCLINATION":"53.2184","REV_AT_EPOCH":"3293","ECCENTRICITY":"0.00018090","TIME_SYSTEM":"UTC","SITE":"AFETR","TLE_LINE2":"2 52102  53.2184 265.1979 0001809  53.7615 306.3544 15.08832641 32939","BSTAR":"-0.00002320800000","ELEMENT_SET_NO":"999","CLASSIFICATION_TYPE":"U","LAUNCH_DATE":"2022-03-19","SEMIMAJOR_AXIS":"6917.903","PERIAPSIS":"538.516","MEAN_MOTION":"15.08832641","ARG_OF_PERICENTER":"53.7615","OBJECT_NAME":"STARLINK-3709","NORAD_CAT_ID":"52102","EPHEMERIS_TYPE":"0","RA_OF_ASC_NODE":"265.1979","MEAN_MOTION_DDOT":"0.0000000000000","OBJECT_ID":"2022-029Q","TLE_LINE1":"1 52102U 22029Q   22285.34437326 -.00000657  00000-0 -23208-4 0  9995","RCS_SIZE":"LARGE","MEAN_ANOMALY":"306.3544","MEAN_ELEMENT_THEORY":"SGP4","REF_FRAME":"TEME","EPOCH":"2022-10-12T08:15:53.849664","OBJECT_TYPE":"PAYLOAD","GP_ID":"214883969"},{"RA_OF_ASC_NODE":"265.3162","EPHEMERIS_TYPE":"0","NORAD_CAT_ID":"52103","OBJECT_NAME":"STARLINK-3705","ARG_OF_PERICENTER":"49.1314","MEAN_MOTION":"15.08831901","PERIAPSIS":"538.539","SEMIMAJOR_AXIS":"6917.905","LAUNCH_DATE":"2022-03-19","GP_ID":"214888079","OBJECT_TYPE":"PAYLOAD","EPOCH":"2022-10-12T07:37:25.683168","REF_FRAME":"TEME","MEAN_ELEMENT_THEORY":"SGP4","MEAN_ANOMALY":"310.9832","RCS_SIZE":"LARGE","TLE_LINE1":"1 52103U 22029R   22285.31765837  .00000521  00000-0  50833-4 0  9996","OBJECT_ID":"2022-029R","MEAN_MOTION_DDOT":"0.0000000000000","CENTER_NAME":"EARTH","MEAN_MOTION_DOT":"0.00000521","PERIOD":"95.438","DECAY_DATE":null,"APOAPSIS":"541.002","COUNTRY_CODE":"US","FILE":"3606417","CLASSIFICATION_TYPE":"U","ELEMENT_SET_NO":"999","TLE_LINE2":"2 52103  53.2157 265.3162 0001780  49.1314 310.9832 15.08831901 32927","BSTAR":"0.00005083300000","SITE":"AFETR","TIME_SYSTEM":"UTC","ECCENTRICITY":"0.00017800","REV_AT_EPOCH":"3292","INCLINATION":"53.2157"},{"MEAN_MOTION_DOT":"0.00000086","PERIOD":"95.438","CENTER_NAME":"EARTH","COUNTRY_CODE":"US","FILE":"3606891","DECAY_DATE":null,"APOAPSIS":"541.195","TLE_LINE2":"2 52105  53.2178 262.6674 0002058  38.2678 321.8460 15.08831637 33016","BSTAR":"0.00002350800000","CLASSIFICATION_TYPE":"U","ELEMENT_SET_NO":"999","REV_AT_EPOCH":"3301","INCLINATION":"53.2178","SITE":"AFETR","ECCENTRICITY":"0.00020580","TIME_SYSTEM":"UTC","ARG_OF_PERICENTER":"38.2678","OBJECT_NAME":"STARLINK-3706","RA_OF_ASC_NODE":"262.6674","NORAD_CAT_ID":"52105","EPHEMERIS_TYPE":"0","SEMIMAJOR_AXIS":"6917.906","PERIAPSIS":"538.347","LAUNCH_DATE":"2022-03-19","MEAN_MOTION":"15.08831637","EPOCH":"2022-10-12T21:46:39.810144","REF_FRAME":"TEME","OBJECT_TYPE":"PAYLOAD","GP_ID":"214922610","OBJECT_ID":"2022-029T","TLE_LINE1":"1 52105U 22029T   22285.90740521  .00000086  00000-0  23508-4 0  9991","RCS_SIZE":"LARGE","MEAN_MOTION_DDOT":"0.0000000000000","MEAN_ELEMENT_THEORY":"SGP4","MEAN_ANOMALY":"321.8460"},{"MEAN_MOTION":"15.08838156","LAUNCH_DATE":"2022-03-19","PERIAPSIS":"538.403","SEMIMAJOR_AXIS":"6917.886","EPHEMERIS_TYPE":"0","NORAD_CAT_ID":"52106","RA_OF_ASC_NODE":"274.9657","OBJECT_NAME":"STARLINK-3670","ARG_OF_PERICENTER":"49.1575","MEAN_ANOMALY":"310.9586","MEAN_ELEMENT_THEORY":"SGP4","MEAN_MOTION_DDOT":"0.0000000000000","RCS_SIZE":"LARGE","TLE_LINE1":"1 52106U 22029U   22285.39769608 -.00000818  00000-0 -33317-4 0  9996","OBJECT_ID":"2022-029U","GP_ID":"214883716","OBJECT_TYPE":"PAYLOAD","REF_FRAME":"TEME","EPOCH":"2022-10-12T09:32:40.941312","APOAPSIS":"541.099","DECAY_DATE":null,"FILE":"3606148","COUNTRY_CODE":"US","CENTER_NAME":"EARTH","PERIOD":"95.438","MEAN_MOTION_DOT":"-0.00000818","TIME_SYSTEM":"UTC","ECCENTRICITY":"0.00019480","SITE":"AFETR","INCLINATION":"53.2183","REV_AT_EPOCH":"3280","ELEMENT_SET_NO":"999","CLASSIFICATION_TYPE":"U","BSTAR":"-0.00003331700000","TLE_LINE2":"2 52106  53.2183 274.9657 0001948  49.1575 310.9586 15.08838156 32801"},{"MEAN_MOTION":"15.08838893","SEMIMAJOR_AXIS":"6917.884","PERIAPSIS":"538.582","LAUNCH_DATE":"2022-03-19","RA_OF_ASC_NODE":"263.8773","NORAD_CAT_ID":"52107","EPHEMERIS_TYPE":"0","ARG_OF_PERICENTER":"49.0211","OBJECT_NAME":"STARLINK-3658","MEAN_ELEMENT_THEORY":"SGP4","MEAN_ANOMALY":"311.0926","TLE_LINE1":"1 52107U 22029V   22285.63780879  .00001026  00000-0  82572-4 0  9994","OBJECT_ID":"2022-029V","RCS_SIZE":"LARGE","MEAN_MOTION_DDOT":"0.0000000000000","OBJECT_TYPE":"PAYLOAD","GP_ID":"214924097","EPOCH":"2022-10-12T15:18:26.679456","REF_FRAME":"TEME","DECAY_DATE":null,"APOAPSIS":"540.915","COUNTRY_CODE":"US","FILE":"3606891","CENTER_NAME":"EARTH","MEAN_MOTION_DOT":"0.00001026","PERIOD":"95.438","SITE":"AFETR","TIME_SYSTEM":"UTC","ECCENTRICITY":"0.00016860","REV_AT_EPOCH":"3297","INCLINATION":"53.2171","CLASSIFICATION_TYPE":"U","ELEMENT_SET_NO":"999","BSTAR":"0.00008257200000","TLE_LINE2":"2 52107  53.2171 263.8773 0001686  49.0211 311.0926 15.08838893 32976"},{"ECCENTRICITY":"0.00020260","TIME_SYSTEM":"UTC","SITE":"AFETR","INCLINATION":"53.2174","REV_AT_EPOCH":"3294","ELEMENT_SET_NO":"999","CLASSIFICATION_TYPE":"U","TLE_LINE2":"2 52108  53.2174 264.7404 0002026  44.2260 315.8894 15.08828538 32949","BSTAR":"-0.00000642380000","APOAPSIS":"541.182","DECAY_DATE":null,"FILE":"3606148","COUNTRY_CODE":"US","CENTER_NAME":"EARTH","PERIOD":"95.438","MEAN_MOTION_DOT":"-0.00000390","MEAN_ANOMALY":"315.8894","MEAN_ELEMENT_THEORY":"SGP4","MEAN_MOTION_DDOT":"0.0000000000000","RCS_SIZE":"LARGE","OBJECT_ID":"2022-029W","TLE_LINE1":"1 52108U 22029W   22285.44646257 -.00000390  00000-0 -64238-5 0  9990","GP_ID":"214882722","OBJECT_TYPE":"PAYLOAD","REF_FRAME":"TEME","EPOCH":"2022-10-12T10:42:54.366048","MEAN_MOTION":"15.08828538","LAUNCH_DATE":"2022-03-19","PERIAPSIS":"538.379","SEMIMAJOR_AXIS":"6917.915","EPHEMERIS_TYPE":"0","NORAD_CAT_ID":"52108","RA_OF_ASC_NODE":"264.7404","OBJECT_NAME":"STARLINK-3698","ARG_OF_PERICENTER":"44.2260"},{"COUNTRY_CODE":"US","FILE":"3606386","DECAY_DATE":null,"APOAPSIS":"541.091","MEAN_MOTION_DOT":"0.00000104","PERIOD":"95.437","CENTER_NAME":"EARTH","REV_AT_EPOCH":"3293","INCLINATION":"53.2182","SITE":"AFETR","ECCENTRICITY":"0.00019580","TIME_SYSTEM":"UTC","TLE_LINE2":"2 52110  53.2182 265.0506 0001958  49.3394 310.7768 15.08842821 32939","BSTAR":"0.00002465100000","CLASSIFICATION_TYPE":"U","ELEMENT_SET_NO":"999","PERIAPSIS":"538.382","SEMIMAJOR_AXIS":"6917.872","LAUNCH_DATE":"2022-03-19","MEAN_MOTION":"15.08842821","OBJECT_NAME":"STARLINK-3687","ARG_OF_PERICENTER":"49.3394","RA_OF_ASC_NODE":"265.0506","EPHEMERIS_TYPE":"0","NORAD_CAT_ID":"52110","RCS_SIZE":"LARGE","TLE_LINE1":"1 52110U 22029Y   22285.37652357  .00000104  00000-0  24651-4 0  9998","OBJECT_ID":"2022-029Y","MEAN_MOTION_DDOT":"0.0000000000000","MEAN_ELEMENT_THEORY":"SGP4","MEAN_ANOMALY":"310.7768","EPOCH":"2022-10-12T09:02:11.636448","REF_FRAME":"TEME","GP_ID":"214888098","OBJECT_TYPE":"PAYLOAD"}];
